OSCAR 7 (AO-7)          
1 07530U 74089B   18279.51623687 -.00000027  00000-0  11204-3 0  9999
2 07530 101.7020 245.2228 0012344 118.5790  22.9058 12.53634767  8545
UOSAT 2 (UO-11)         
1 14781U 84021B   18278.92323901  .00000062  00000-0  13763-4 0  9993
2 14781  97.6399 310.3577 0010008  81.6237 278.6112 14.83034007839858
LUSAT (LO-19)           
1 20442U 90005G   18279.37933232  .00000003  00000-0  17426-4 0  9992
2 20442  98.6171 217.2218 0011688 176.7774 183.3487 14.32906119499813
ITAMSAT (IO-26)         
1 22826U 93061D   18279.18086198  .00000004  00000-0  19312-4 0  9991
2 22826  98.8697 257.3989 0009297  19.2932 340.8600 14.30372912305624
RADIO ROSTO (RS-15)     
1 23439U 94085A   18278.92929064 -.00000034  00000-0  23987-3 0  9994
2 23439  64.8161 169.7377 0153603 161.8876 276.7334 11.27568422979054
JAS-2 (FO-29)           
1 24278U 96046B   18278.92456491 -.00000007  00000-0  28090-4 0  9995
2 24278  98.5150 102.4179 0350308 183.4208 176.4531 13.53085889 92965
TECHSAT 1B (GO-32)      
1 25397U 98043D   18279.07679722 -.00000019  00000-0  10720-4 0  9992
2 25397  98.6575 217.7177 0002340  71.5846 288.5587 14.23652393 51502
ISS (ZARYA)             
1 25544U 98067A   18279.86045506  .00001740  00000-0  33924-4 0  9998
2 25544  51.6412 182.2072 0003604 249.5184 195.1296 15.53784221135885
PCSAT (NO-44)           
1 26931U 01043C   18278.54221570 -.00000022  00000-0  23205-4 0  9992
2 26931  67.0506 304.6568 0007328 259.9700 100.0574 14.30518663888335
SAUDISAT 1C (SO-50)     
1 27607U 02058C   18278.89443886 -.00000016  00000-0  18587-4 0  9994
2 27607  64.5535 111.6206 0075330 305.4344  53.9740 14.75484817849165
CUTE-1 (CO-55)          
1 27844U 03031E   18278.98159604  .00000056  00000-0  45128-4 0  9995
2 27844  98.6880 286.0073 0010729  54.9089 305.3094 14.22136314791947
CUBESAT XI-IV (CO-57)   
1 27848U 03031J   18278.47923282  .00000043  00000-0  39529-4 0  9998
2 27848  98.6964 285.9458 0010747  66.1525 294.0777 14.21737513791735
MOZHAYETS 4 (RS-22)     
1 27939U 03042A   18279.51770375  .00000067  00000-0  20511-4 0  9997
2 27939  98.0069  55.8829 0013648 151.0095 298.1537 14.66720263803131
CUBESAT XI-V (CO-58)    
1 28895U 05043F   18278.89428004  .00000135  00000-0  34654-4 0  9990
2 28895  97.9247  65.9669 0018161  80.7779 279.5477 14.63587047690076
CUTE-1.7+APD II (CO-65) 
1 32785U 08021C   18278.85739251  .00000197  00000-0  26962-4 0  9998
2 32785  97.5477 285.7541 0013996  37.1193 323.0990 14.88182852565638
DELFI-C3 (DO-64)        
1 32789U 08021G   18279.12220764  .00000632  00000-0  47039-4 0  9999
2 32789  97.5008 331.0706 0010768 279.9990  80.0022 15.06341781568486
SEEDS II (CO-66)        
1 32791U 08021J   18279.50306094  .00000347  00000-0  40721-4 0  9999
2 32791  97.5342 291.9650 0013719  14.6949 345.4666 14.90640259566090
YUBILEINY (RS-30)       
1 32953U 08025A   18279.51000654  .00000042  00000-0  23172-3 0  9999
2 32953  82.4999 303.4485 0018319 330.0594  29.9437 12.43085949470604
KKS-1 (KISEKI)          
1 33499U 09002H   18278.93074370  .00000115  00000-0  25037-4 0  9996
2 33499  98.3579 104.3182 0008158 305.4662  54.5784 14.75366805521082
SWISSCUBE               
1 35932U 09051B   18278.92682530  .00000127  00000-0  39754-4 0  9990
2 35932  98.5603  72.8461 0006854 223.9496 136.1156 14.56200750479510
BEESAT                  
1 35933U 09051C   18279.01505412  .00000113  00000-0  36401-4 0  9996
2 35933  98.5639  74.5537 0004887 236.8285 123.2443 14.56299979479670
ITUPSAT 1               
1 35935U 09051E   18278.92636641  .00000071  00000-0  27481-4 0  9997
2 35935  98.5750  74.7129 0007230 234.3813 125.6710 14.55472100479402
XIWANG-1 (HOPE-1)       
1 36122U 09072B   18279.20768469 -.00000005  00000-0  97244-4 0  9997
2 36122 100.0750 288.6409 0007108 211.8633 148.2052 13.16346634423251
JUGNU                   
1 37839U 11058B   18278.83338927  .00000291  00000-0  13755-4 0  9991
2 37839  19.9614  86.3041 0018980  26.5020 104.5503 14.12630289361032
SRMSAT                  
1 37841U 11058D   18278.93891704  .00000306  00000-0  23120-4 0  9996
2 37841  19.9713 137.1537 0011796 267.0918 218.8127 14.10615786360444
M-CUBED & EXP-1 PRIME   
1 37855U 11061F   18278.92952262  .00001609  00000-0  88903-4 0  9998
2 37855 101.7175  38.1161 0175669 114.4410 247.5239 15.04764336377830
STRAND-1                
1 39090U 13009E   18279.52986615  .00000038  00000-0  28550-4 0  9998
2 39090  98.5107 124.4118 0008672 333.8253  26.2493 14.35052440293798
SOMP                    
1 39134U 13015E   18278.98137445  .00000940  00000-0  53472-4 0  9995
2 39134  64.8625 128.4345 0003903 301.0900  58.9844 15.19454123301735
BEESAT-3                
1 39135U 13015F   18279.38487828  .00000757  00000-0  48095-4 0  9995
2 39135  64.8670 141.9462 0011835 234.3472 125.6552 15.16904681301511
BEESAT-2                
1 39136U 13015G   18278.93247340  .00000620  00000-0  41770-4 0  9991
2 39136  64.8681 146.4914 0012421 234.6563 125.3402 15.16361377300993
ZACUBE-1 (TSHEPISOSAT)  
1 39417U 13066B   18279.52687910  .00000207  00000-0  32388-4 0  9992
2 39417  97.5806 302.1811 0059892 149.2200 211.2548 14.80987662263272
GOMX 1                  
1 39430U 13066Q   18279.53418207  .00000268  00000-0  57846-4 0  9992
2 39430  97.7107 248.4594 0151106 339.6756  19.8471 14.59135412259383
CUBEBUG-2 (LO-74)       
1 39440U 13066AA  18279.47766236  .00000186  00000-0  32941-4 0  9992
2 39440  97.6008 288.0987 0080072 193.0380 166.8762 14.75728318262333
FUNCUBE-1 (AO-73)       
1 39444U 13066AE  18279.12597445  .00000249  00000-0  37005-4 0  9998
2 39444  97.5810 303.4659 0059102 145.5184 214.9887 14.81782049262082
UWE-3                   
1 39446U 13066AG  18279.51287896  .00000193  00000-0  32313-4 0  9994
2 39446  97.5893 294.7165 0070394 171.4639 188.7789 14.78262575261562
SPROUT                  
1 39770U 14029E   18279.35974325  .00000523  00000-0  64486-4 0  9999
2 39770  97.8789  19.5141 0008583 197.9213 162.1694 14.86993655236885
UNISAT-6                
1 40012U 14033C   18279.41935485  .00000166  00000-0  32334-4 0  9996
2 40012  97.7905 151.4709 0057803 199.7520 160.1451 14.73871067231085
DUCHIFAT-1              
1 40021U 14033M   18278.83824988  .00000312  00000-0  37929-4 0  9994
2 40021  97.9133 197.7442 0013006 167.4031 192.7514 14.90401916233436
FUNCUBE-3 (EO-79)       
1 40025U 14033R   18279.31542233  .00000291  00000-0  37065-4 0  9999
2 40025  97.9006 194.4607 0012451 173.2046 186.9341 14.88784330233322
NUDT-PHONESAT           
1 40900U 15049B   18279.51392608  .00002033  00000-0  92630-4 0  9995
2 40900  97.4422 286.5159 0013470   7.3480 352.7951 15.21750993168847
ZDPS 2A                 
1 40901U 15049C   18279.47297262  .00000912  00000-0  49061-4 0  9995
2 40901  97.4609 284.1026 0014144  17.8886 342.2843 15.17280282168531
ZDPS 2B                 
1 40902U 15049D   18279.46192332  .00000863  00000-0  46895-4 0  9994
2 40902  97.4518 281.9390 0014127  15.1373 345.0280 15.17068499168511
XW-2A                   
1 40903U 15049E   18279.43240288  .00001968  00000-0  49861-4 0  9999
2 40903  97.3742 315.3565 0013751 356.2696   3.8445 15.40901914170930
KAITUO 1A               
1 40904U 15049F   18279.44412233  .00000210  00000-0  14706-4 0  9991
2 40904  97.4628 280.9778 0015495  18.2995 148.1234 15.15123874168346
2015-049G               
1 40905U 15049G   18279.51302386  .00000398  00000-0  25406-4 0  9993
2 40905  97.4635 278.9417 0016077  11.8032 348.3574 15.14069555168266
XW-2C                   
1 40906U 15049H   18279.45850637  .00000672  00000-0  39087-4 0  9999
2 40906  97.4637 280.9391 0015260  10.8129 349.3428 15.15336579168344
XW-2D                   
1 40907U 15049J   18279.46550607  .00000716  00000-0  41216-4 0  9991
2 40907  97.4612 280.6319 0014558   8.8265 351.3221 15.15498448168351
LILACSAT 2              
1 40908U 15049K   18279.47694660  .00000394  00000-0  25499-4 0  9998
2 40908  97.4727 279.8548 0016286  10.9866 349.1718 15.13599256168201
XW-2F                   
1 40910U 15049M   18279.45594403  .00001077  00000-0  58175-4 0  9999
2 40910  97.4605 282.1406 0015082   3.5536 356.5802 15.16762884168325
XW-2B                   
1 40911U 15049N   18279.48724803  .00000683  00000-0  39548-4 0  9997
2 40911  97.4644 281.2309 0014485   9.4084 350.7417 15.15438747168257
KAITUO 1B               
1 40912U 15049P   18279.29987582  .00001038  00000-0  52761-4 0  9999
2 40912  97.4526 285.0807 0014815 350.4281 137.6465 15.19008365168536
TIANWANG 1C (TW-1C)     
1 40926U 15051B   18279.51584669  .00008194  00000-0  14370-3 0  9994
2 40926  97.1730 321.3903 0008612 220.5243 246.0082 15.50778680170553
TIANWANG 1A (TW-1A)     
1 40928U 15051D   18279.52347632  .00002441  00000-0  64660-4 0  9991
2 40928  97.1763 311.2893 0010038 282.2792 181.8307 15.39269710169905
LAPAN-A2 (IO-86)        
1 40931U 15052B   18277.60593628  .00000701  00000-0  86283-5 0  9994
2 40931   6.0014  89.8595 0012696 116.8947 192.4581 14.76586601163198
E-ST@R-II               
1 41459U 16025D   18279.44344364  .00001183  00000-0  64962-4 0  9990
2 41459  98.1275 347.9922 0171405 135.0472 226.4774 15.04707190134153
AAUSAT 4                
1 41460U 16025E   18279.44433256  .00001905  00000-0  10051-3 0  9992
2 41460  98.1178 348.6836 0162176 130.2429 231.3093 15.06270528134233
NUSAT 1 (LO-87)         
1 41557U 16033B   18279.27414175  .00001278  00000-0  50716-4 0  9994
2 41557  97.4331   3.1565 0015010 117.1685 243.1086 15.27125731131112
BEESAT-4                
1 41619U 16040W   18279.42134796  .00001393  00000-0  63238-4 0  9997
2 41619  97.4038 340.9785 0011165 192.1558 167.9411 15.22418959115018
ALSAT 1N                
1 41789U 16059G   18279.41863316  .00000045  00000-0  17594-4 0  9998
2 41789  98.1075 340.5640 0029593  97.0666 263.3903 14.64183725108292
CAS-2T & KS-1Q          
1 41847U 16066G   18278.96042221  .00000036  00000-0  17053-4 0  9994
2 41847  98.7417 310.1335 0365021 275.3804  80.5849 14.37925923100240
NAYIF-1 (EO-88)         
1 42017U 17008BX  18279.14737661  .00001308  00000-0  55710-4 0  9996
2 42017  97.4373 343.4992 0006206   5.4708 354.6596 15.24760504 90978
LILACSAT-1              
1 42725U 98067ME  18279.47883026  .00037160  00000-0  24139-3 0  9994
2 42725  51.6347 148.1784 0002370 267.5577  92.5151 15.75589260 78020
MAX VALIER SAT          
1 42778U 17036P   18279.20105724  .00000983  00000-0  46654-4 0  9992
2 42778  97.3918 337.0119 0013693  46.8419 313.3959 15.21521831 71386
FOX-1B (AO-91)          
1 43017U 17073E   18278.75686430  .00000496  00000-0  45095-4 0  9994
2 43017  97.7097 205.2972 0257808 271.7312  85.4390 14.78226952 47440
FOX-1D (AO-92)          
1 43137U 18004AC  18279.41012310  .00001028  00000-0  46846-4 0  9993
2 43137  97.5224 342.3599 0011050  74.6413 285.6043 15.22932411 40637
